0 SL-8 DEB
1 21170U 91009AH  13282.82601865  .00000275  00000-0  29446-2 0  2198
2 21170 074.1117 066.4231 0150887 142.5037 329.9865 12.12907708   725
0 SL-8 DEB
1 21170U 91009AH  13285.53845605  .00000226  00000-0  24450-2 0  2209
2 21170 074.1127 063.0781 0150847 138.6675 293.7744 12.12909555  1052
0 SL-8 DEB
1 21170U 91009AH  13287.85942331  .00000071  00000-0  85666-3 0  2216
2 21170 074.1135 060.2162 0150803 135.3862 348.2258 12.12911818  1339
0 SL-8 DEB
1 21170U 91009AH  13290.31283991 -.00000135  00000-0 -12395-2 0  2223
2 21170 074.1140 057.1913 0150761 131.9184 261.0293 12.12913862  1631
0 SL-8 DEB
1 21170U 91009AH  13292.46485707 -.00000267  00000-0 -25877-2 0  2236
2 21170 074.1140 054.5381 0150741 128.8733 297.7934 12.12914541  1895
0 SL-8 DEB
1 21170U 91009AH  13294.79398350 -.00000295  00000-0 -28807-2 0  2249
2 21170 074.1139 051.6665 0150683 125.5770 027.9106 12.12913542  2172
